GSAT0215 (GALILEO 19)   
1 43055U 17079A   26167.42901799  .00000046  00000+0  00000+0 0  9992
2 43055  55.0735 221.5277 0003119 263.4417  96.6201  1.70474560 52972
GSAT0216 (GALILEO 20)   
1 43056U 17079B   26164.78727197  .00000061  00000+0  00000+0 0  9994
2 43056  55.0743 221.6004 0004468 275.6764  84.3739  1.70474522 52944
GSAT0217 (GALILEO 21)   
1 43057U 17079C   26166.18122907  .00000056  00000+0  00000+0 0  9993
2 43057  55.0707 221.5599 0004444 284.3881  75.6642  1.70474278 52959
GSAT0218 (GALILEO 22)   
1 43058U 17079D   26164.05497403  .00000061  00000+0  00000+0 0  9990
2 43058  55.0728 221.6159 0005024 272.4694  87.5720  1.70474471 52944
BEIDOU-3 M7             
1 43107U 18003A   26167.27659874 -.00000071  00000+0  00000+0 0  9994
2 43107  54.3292 302.3473 0004822  94.2726 265.7691  1.86228044 57339
BEIDOU-3 M8             
1 43108U 18003B   26166.68442619 -.00000071  00000+0  00000+0 0  9996
2 43108  54.3221 302.3497 0002596 261.7329  98.2226  1.86230980 57339
BEIDOU-3 M4             
1 43207U 18018A   26167.12742264 -.00000050  00000+0  00000+0 0  9998
2 43207  56.6499  63.1838 0007711  19.0983 340.9685  1.86230832 56720
BEIDOU-3 M3             
1 43208U 18018B   26167.19390163 -.00000050  00000+0  00000+0 0  9993
2 43208  56.6497  63.1857 0008705 341.1278  18.8782  1.86230678 56727
BEIDOU-3 M9             
1 43245U 18029A   26167.41170405 -.00000069  00000+0  00000+0 0  9996
2 43245  54.1945 299.9756 0001003 155.3229 204.6710  1.86227974 55888
BEIDOU-3 M10            
1 43246U 18029B   26167.34606544 -.00000069  00000+0  00000+0 0  9997
2 43246  54.1924 300.0050 0003787  39.7173 320.2992  1.86229142 55865
IRNSS-1I                
1 43286U 18035A   26166.83981681  .00000062  00000+0  00000+0 0  9991
2 43286  28.7520  74.2167 0017811 181.5598   5.5147  1.00272046 30064
COSMOS 2527 [GLONASS-M] 
1 43508U 18053A   26167.14615242 -.00000020  00000+0  00000+0 0  9995
2 43508  65.5769  73.9425 0007190 240.1644 119.7952  2.13102090 62255
BEIDOU-2 IGSO-7         
1 43539U 18057A   26166.92202744 -.00000027  00000+0  00000+0 0  9994
2 43539  55.1938 163.0687 0105067 238.0100 305.1025  1.00251416 29110
GSAT0221 (GALILEO 25)   
1 43564U 18060A   26167.47838924 -.00000087  00000+0  00000+0 0  9998
2 43564  57.1694 341.7993 0002609 304.1202  55.8507  1.70475890 49151
GSAT0222 (GALILEO 26)   
1 43565U 18060B   26166.52487846 -.00000083  00000+0  00000+0 0  9993
2 43565  57.1732 341.8288 0001964 249.0042 110.9733  1.70475624 49187
GSAT0219 (GALILEO 23)   
1 43566U 18060C   26167.33235301 -.00000086  00000+0  00000+0 0  9994
2 43566  57.1726 341.8084 0002038 324.7693  35.2133  1.70475853 49177
GSAT0220 (GALILEO 24)   
1 43567U 18060D   26167.55334141 -.00000087  00000+0  00000+0 0  9992
2 43567  57.1721 341.8022 0002138 311.2729  48.7042  1.70475554 49162
BEIDOU-3 M5             
1 43581U 18062A   26167.03318775  .00000073  00000+0  00000+0 0  9992
2 43581  54.0851 182.3434 0005538 288.6554  71.3241  1.86228715 53613
BEIDOU-3 M6             
1 43582U 18062B   26166.35970745  .00000083  00000+0  00000+0 0  9999
2 43582  54.0850 182.3554 0004918   8.9960 351.0582  1.86227634 53605
BEIDOU-3 M12            
1 43602U 18067A   26165.76115788  .00000093  00000+0  00000+0 0  9990
2 43602  54.1799 181.1228 0007735  29.8475 330.2441  1.86227714 53072
BEIDOU-3 M11            
1 43603U 18067B   26165.35925920  .00000099  00000+0  00000+0 0  9999
2 43603  54.1775 181.0999 0004437  12.9310 347.1309  1.86227183 53090
BEIDOU-3 M13            
1 43622U 18072A   26166.92498194 -.00000051  00000+0  00000+0 0  9997
2 43622  56.6234  62.7019 0007311 328.8537  31.1409  1.86231268 52639
BEIDOU-3 M14            
1 43623U 18072B   26167.32737262 -.00000051  00000+0  00000+0 0  9995
2 43623  56.6255  62.6830 0006188 359.6578   0.3811  1.86231323 52638
BEIDOU-3 M16            
1 43647U 18078A   26167.48269909 -.00000069  00000+0  00000+0 0  9991
2 43647  54.0906 300.0107 0007191  40.8827 319.1605  1.86232176 52141
BEIDOU-3 M15            
1 43648U 18078B   26165.46418844 -.00000068  00000+0  00000+0 0  9991
2 43648  54.0883 300.0818 0004204  57.5981 302.4264  1.86232267 52128
BEIDOU-3 G1             
1 43683U 18085A   26167.71651019 -.00000113  00000+0  00000+0 0  9992
2 43683   2.8664  97.3833 0008048 349.3510 236.1476  1.00270370 28054
COSMOS 2529 [GLONASS-M] 
1 43687U 18086A   26167.24265345  .00000076  00000+0  00000+0 0  9995
2 43687  64.2948 192.6264 0012031 256.4930 103.4343  2.13101928 59266
BEIDOU-3 M17            
1 43706U 18093A   26167.41497750  .00000068  00000+0  00000+0 0  9992
2 43706  54.1690 182.3223 0010164 291.9896 187.6133  1.86228321 51529
BEIDOU-3 M18            
1 43707U 18093B   26167.09989449  .00000072  00000+0  00000+0 0  9993
2 43707  54.1695 182.3251 0007997 320.4570  39.5237  1.86226619 51510
NAVSTAR 77 (USA 289)    
1 43873U 18109A   26167.79730977 -.00000018  00000+0  00000+0 0  9993
2 43873  55.6819  92.2019 0038150 197.9170   4.3345  2.00561458 55061
BEIDOU-3 IGSO-1         
1 44204U 19023A   26167.59097509 -.00000221  00000+0  00000+0 0  9999
2 44204  58.6939  37.6556 0025458 225.7166 332.2073  1.00291370  7203
